{
  "type": "FeatureCollection",
  "features": [
    {
      "type": "Feature",
      "properties": {
        "norad_id": 24876,
        "name": "GPS BIIR-2  (PRN 13)",
        "group": "gps-ops",
        "lat": 47.312875800923166,
        "lon": -121.5938258611265,
        "alt_km": 20048.316569200917,
        "timestamp": "2025-12-19T08:58:49.597080+00:00",
        "meta_object_name": "GPS BIIR-2  (PRN 13)",
        "meta_object_id": "1997-035A",
        "meta_epoch": "2025-12-17T17:14:35.709504",
        "meta_mean_motion": 2.00563699,
        "meta_eccentricity": 0.00967771,
        "meta_inclination": 55.8976,
        "meta_ra_of_asc_node": 105.6742,
        "meta_arg_of_pericenter": 56.9662,
        "meta_mean_anomaly": 303.9295,
        "meta_ephemeris_type": 0,
        "meta_classification_type": "U",
        "meta_norad_cat_id": 24876,
        "meta_element_set_no": 999,
        "meta_rev_at_epoch": 20831,
        "meta_bstar": 0,
        "meta_mean_motion_dot": -2.3e-07,
        "meta_mean_motion_ddot": 0,
        "tle_line1": "1 24876U 97035A   25351.71846886 -.00000023  00000+0  00000+0 0  9999",
        "tle_line2": "2 24876  55.8976 105.6742 0096777  56.9662 303.9295  2.00563699208319"
      },
      "geometry": {
        "type": "Point",
        "coordinates": [
          -121.5938258611265,
          47.312875800923166
        ]
      }
    },
    {
      "type": "Feature",
      "properties": {
        "norad_id": 26360,
        "name": "GPS BIIR-4  (PRN 20)",
        "group": "gps-ops",
        "lat": -22.763293067802937,
        "lon": -136.35377161665104,
        "alt_km": 20099.37397936483,
        "timestamp": "2025-12-19T08:58:49.597107+00:00",
        "meta_object_name": "GPS BIIR-4  (PRN 20)",
        "meta_object_id": "2000-025A",
        "meta_epoch": "2025-12-18T04:28:10.585632",
        "meta_mean_motion": 2.00567362,
        "meta_eccentricity": 0.0038886,
        "meta_inclination": 55.0484,
        "meta_ra_of_asc_node": 26.6175,
        "meta_arg_of_pericenter": 242.5017,
        "meta_mean_anomaly": 188.1576,
        "meta_ephemeris_type": 0,
        "meta_classification_type": "U",
        "meta_norad_cat_id": 26360,
        "meta_element_set_no": 999,
        "meta_rev_at_epoch": 18764,
        "meta_bstar": 0,
        "meta_mean_motion_dot": -7.5e-07,
        "meta_mean_motion_ddot": 0,
        "tle_line1": "1 26360U 00025A   25352.18623363 -.00000075  00000+0  00000+0 0  9994",
        "tle_line2": "2 26360  55.0484  26.6175 0038886 242.5017 188.1576  2.00567362187649"
      },
      "geometry": {
        "type": "Point",
        "coordinates": [
          -136.35377161665104,
          -22.763293067802937
        ]
      }
    },
    {
      "type": "Feature",
      "properties": {
        "norad_id": 26407,
        "name": "GPS BIIR-5  (PRN 22)",
        "group": "gps-ops",
        "lat": 38.3741416417467,
        "lon": -103.8459059986816,
        "alt_km": 20273.0528986251,
        "timestamp": "2025-12-19T08:58:49.597124+00:00",
        "meta_object_name": "GPS BIIR-5  (PRN 22)",
        "meta_object_id": "2000-040A",
        "meta_epoch": "2025-12-18T18:27:27.290304",
        "meta_mean_motion": 2.0056811,
        "meta_eccentricity": 0.0125687,
        "meta_inclination": 54.8894,
        "meta_ra_of_asc_node": 222.3292,
        "meta_arg_of_pericenter": 301.9126,
        "meta_mean_anomaly": 29.2311,
        "meta_ephemeris_type": 0,
        "meta_classification_type": "U",
        "meta_norad_cat_id": 26407,
        "meta_element_set_no": 999,
        "meta_rev_at_epoch": 18632,
        "meta_bstar": 0,
        "meta_mean_motion_dot": 7.5e-07,
        "meta_mean_motion_ddot": 0,
        "tle_line1": "1 26407U 00040A   25352.76906586  .00000075  00000+0  00000+0 0  9997",
        "tle_line2": "2 26407  54.8894 222.3292 0125687 301.9126  29.2311  2.00568110186323"
      },
      "geometry": {
        "type": "Point",
        "coordinates": [
          -103.8459059986816,
          38.3741416417467
        ]
      }
    },
    {
      "type": "Feature",
      "properties": {
        "norad_id": 27663,
        "name": "GPS BIIR-8  (PRN 16)",
        "group": "gps-ops",
        "lat": -4.273991567879272,
        "lon": 45.13558324400397,
        "alt_km": 20448.756590344135,
        "timestamp": "2025-12-19T08:58:49.597138+00:00",
        "meta_object_name": "GPS BIIR-8  (PRN 16)",
        "meta_object_id": "2003-005A",
        "meta_epoch": "2025-12-18T15:15:29.035872",
        "meta_mean_motion": 2.00570647,
        "meta_eccentricity": 0.0147663,
        "meta_inclination": 54.922,
        "meta_ra_of_asc_node": 222.1438,
        "meta_arg_of_pericenter": 51.8804,
        "meta_mean_anomaly": 318.9428,
        "meta_ephemeris_type": 0,
        "meta_classification_type": "U",
        "meta_norad_cat_id": 27663,
        "meta_element_set_no": 999,
        "meta_rev_at_epoch": 16769,
        "meta_bstar": 0,
        "meta_mean_motion_dot": 7.5e-07,
        "meta_mean_motion_ddot": 0,
        "tle_line1": "1 27663U 03005A   25352.63575273  .00000075  00000+0  00000+0 0  9997",
        "tle_line2": "2 27663  54.9220 222.1438 0147663  51.8804 318.9428  2.00570647167698"
      },
      "geometry": {
        "type": "Point",
        "coordinates": [
          45.13558324400397,
          -4.273991567879272
        ]
      }
    },
    {
      "type": "Feature",
      "properties": {
        "norad_id": 28190,
        "name": "GPS BIIR-11 (PRN 19)",
        "group": "gps-ops",
        "lat": -14.178257549390214,
        "lon": -87.25361609201708,
        "alt_km": 20471.761212097685,
        "timestamp": "2025-12-19T08:58:49.597151+00:00",
        "meta_object_name": "GPS BIIR-11 (PRN 19)",
        "meta_object_id": "2004-009A",
        "meta_epoch": "2025-12-18T01:19:43.105728",
        "meta_mean_motion": 2.00560667,
        "meta_eccentricity": 0.01084092,
        "meta_inclination": 54.9808,
        "meta_ra_of_asc_node": 283.0048,
        "meta_arg_of_pericenter": 167.7197,
        "meta_mean_anomaly": 302.5438,
        "meta_ephemeris_type": 0,
        "meta_classification_type": "U",
        "meta_norad_cat_id": 28190,
        "meta_element_set_no": 999,
        "meta_rev_at_epoch": 15931,
        "meta_bstar": 0,
        "meta_mean_motion_dot": -5.1e-07,
        "meta_mean_motion_ddot": 0,
        "tle_line1": "1 28190U 04009A   25352.05536002 -.00000051  00000+0  00000+0 0  9996",
        "tle_line2": "2 28190  54.9808 283.0048 0108409 167.7197 302.5438  2.00560667159317"
      },
      "geometry": {
        "type": "Point",
        "coordinates": [
          -87.25361609201708,
          -14.178257549390214
        ]
      }
    },
    {
      "type": "Feature",
      "properties": {
        "norad_id": 28474,
        "name": "GPS BIIR-13 (PRN 02)",
        "group": "gps-ops",
        "lat": 35.347516139125105,
        "lon": 1.6284257742400292,
        "alt_km": 20212.16526405554,
        "timestamp": "2025-12-19T08:58:49.597163+00:00",
        "meta_object_name": "GPS BIIR-13 (PRN 02)",
        "meta_object_id": "2004-045A",
        "meta_epoch": "2025-12-18T14:06:14.745888",
        "meta_mean_motion": 2.00569895,
        "meta_eccentricity": 0.01708674,
        "meta_inclination": 55.2378,
        "meta_ra_of_asc_node": 332.1705,
        "meta_arg_of_pericenter": 309.5078,
        "meta_mean_anomaly": 245.3843,
        "meta_ephemeris_type": 0,
        "meta_classification_type": "U",
        "meta_norad_cat_id": 28474,
        "meta_element_set_no": 999,
        "meta_rev_at_epoch": 15480,
        "meta_bstar": 0,
        "meta_mean_motion_dot": -8.5e-07,
        "meta_mean_motion_ddot": 0,
        "tle_line1": "1 28474U 04045A   25352.58767067 -.00000085  00000+0  00000+0 0  9993",
        "tle_line2": "2 28474  55.2378 332.1705 0170867 309.5078 245.3843  2.00569895154800"
      },
      "geometry": {
        "type": "Point",
        "coordinates": [
          1.6284257742400292,
          35.347516139125105
        ]
      }
    },
    {
      "type": "Feature",
      "properties": {
        "norad_id": 28874,
        "name": "GPS BIIRM-1 (PRN 17)",
        "group": "gps-ops",
        "lat": 2.7074018889218547,
        "lon": -77.68775281062612,
        "alt_km": 20054.66286550522,
        "timestamp": "2025-12-19T08:58:49.597175+00:00",
        "meta_object_name": "GPS BIIRM-1 (PRN 17)",
        "meta_object_id": "2005-038A",
        "meta_epoch": "2025-12-18T14:46:52.316256",
        "meta_mean_motion": 2.00578112,
        "meta_eccentricity": 0.01314599,
        "meta_inclination": 55.0267,
        "meta_ra_of_asc_node": 280.4644,
        "meta_arg_of_pericenter": 293.6802,
        "meta_mean_anomaly": 240.6678,
        "meta_ephemeris_type": 0,
        "meta_classification_type": "U",
        "meta_norad_cat_id": 28874,
        "meta_element_set_no": 999,
        "meta_rev_at_epoch": 14821,
        "meta_bstar": 0,
        "meta_mean_motion_dot": -4.2e-07,
        "meta_mean_motion_ddot": 0,
        "tle_line1": "1 28874U 05038A   25352.61588329 -.00000042  00000+0  00000+0 0  9999",
        "tle_line2": "2 28874  55.0267 280.4644 0131459 293.6802 240.6678  2.00578112148212"
      },
      "geometry": {
        "type": "Point",
        "coordinates": [
          -77.68775281062612,
          2.7074018889218547
        ]
      }
    }
  ]
}